{
"type": "FeatureCollection",
"name": "Panoscanner - Trayectoria 1",
"crs": { "type": "name", "properties": { "name": "urn:ogc:def:crs:EPSG::32718" } },
"features": [
{ "type": "Feature", "properties": { "id": 1 }, "geometry": { "type": "MultiLineString", "coordinates": [ [ [ 665727.205498226685449, 5445475.779066025279462 ], [ 665741.848081238684244, 5445458.969531035982072 ], [ 665755.551234202925116, 5445443.111951829865575 ], [ 665753.594104357529432, 5445441.348663677461445 ], [ 665725.063252944382839, 5445474.517331285402179 ], [ 665723.125708746491, 5445472.979604952968657 ], [ 665751.52391854103189, 5445439.58289715833962 ], [ 665749.404640327789821, 5445437.924707517959177 ], [ 665721.37986839923542, 5445471.239793480373919 ], [ 665719.359827389125712, 5445469.651234076358378 ], [ 665747.693031905218959, 5445436.442178023047745 ], [ 665745.831264641485177, 5445434.769813002087176 ], [ 665717.823723482782952, 5445467.937956560403109 ] ] ] } }
]
}
